JILIN-1 GAOFEN 03D51    
1 54252U 22155B   26190.82163073  .00048496  00000+0  50462-3 0  9991
2 54252  97.6244 337.4099 0004066 251.5469 108.5348 15.64442121203289
JILIN-1 GAOFEN 03D53    
1 54253U 22155C   26190.82866736  .00025734  00000+0  39627-3 0  9998
2 54253  97.6236 332.7088 0004702 274.1914  85.8801 15.54177568203000
JILIN-1 GAOFEN 03D52    
1 54255U 22155E   26190.86437642  .00039159  00000+0  45452-3 0  9993
2 54255  97.6217 335.6929 0003478 269.6997  90.3861 15.61677072203242
JILIN-1 GAOFEN 03D50    
1 54690U 22167J   26190.88313633  .00008490  00000+0  25252-3 0  9994
2 54690  97.6848 359.6633 0005657  38.7682 321.3966 15.34989411198834
JILIN-1 GAOFEN 03D47    
1 54692U 22167L   26190.81933654  .00008032  00000+0  24438-3 0  9997
2 54692  97.6946   1.3338 0008216  46.7886 313.4041 15.34273306198810
JILIN-1 GAOFEN 03D49    
1 54694U 22167N   26190.84785769  .00009703  00000+0  26210-3 0  9990
2 54694  97.6823   1.9982 0006366  65.1690 295.0216 15.37957549198976
JILIN-1 GAOFEN 03D48    
1 54695U 22167P   26190.87820116  .00008528  00000+0  24778-3 0  9991
2 54695  97.6893   1.3696 0006878  47.3054 312.8767 15.35718105198873
JILIN GAOFEN OBJECT A   
1 68691U 26080A   26187.77966256  .00003644  00000+0  23333-3 0  9991
2 68691  97.6601 263.2709 0011906   4.6722 355.4615 15.09144054 12610
JILIN GAOFEN OBJECT B   
1 68692U 26080B   26190.74499073  .00003531  00000+0  22648-3 0  9994
2 68692  97.6593 266.2474 0015212 333.2589  26.7853 15.09075886 13067
JILIN GAOFEN OBJECT C   
1 68693U 26080C   26190.82829969  .00004159  00000+0  26568-3 0  9997
2 68693  97.6596 266.2999 0012534 334.3790  25.6816 15.09149988 13076
JILIN GAOFEN OBJECT D   
1 68694U 26080D   26190.81163648  .00003423  00000+0  22039-3 0  9994
2 68694  97.6658 266.3843 0016898 344.9937  15.0788 15.08932321 13051
JILIN GAOFEN OBJECT E   
1 68695U 26080E   26190.86062935  .00003006  00000+0  19277-3 0  9994
2 68695  97.6637 266.4528 0012903 356.9559   3.1589 15.09224887 13044
JILIN GAOFEN OBJECT F   
1 68696U 26080F   26190.85952309  .00002998  00000+0  19238-3 0  9993
2 68696  97.6608 266.4224 0014027   2.5830 357.5468 15.09189108 13049
JILIN GAOFEN OBJECT G   
1 68697U 26080G   26190.84558317  .00003070  00000+0  19701-3 0  9991
2 68697  97.6649 266.4896 0013889 355.1798   4.9294 15.09171205 13044
JILIN GAOFEN OBJECT H   
1 68698U 26080H   26190.77698964  .00003937  00000+0  25189-3 0  9996
2 68698  97.6641 266.4127 0014685 356.7298   3.3831 15.09098680 13035
