{"fetched_at":"2026-07-10T07:59:06.781Z","source":"https://celestrak.org/NORAD/elements/gp.php?NAME=JILIN&FORMAT=JSON","constellation":"jilin-1-gaofen","records":[{"OBJECT_NAME":"JILIN-1 GAOFEN 03D51","OBJECT_ID":"2022-155B","EPOCH":"2026-07-09T19:43:08.895072","CLASSIFICATION_TYPE":"U","MEAN_MOTION":15.64442121,"ECCENTRICITY":0.0004066,"INCLINATION":97.6244,"RA_OF_ASC_NODE":337.4099,"ARG_OF_PERICENTER":251.5469,"MEAN_ANOMALY":108.5348,"EPHEMERIS_TYPE":0,"NORAD_CAT_ID":54252,"ELEMENT_SET_NO":999,"REV_AT_EPOCH":20328,"BSTAR":0.00050462,"MEAN_MOTION_DOT":0.00048496,"MEAN_MOTION_DDOT":0},{"OBJECT_NAME":"JILIN-1 GAOFEN 03D53","OBJECT_ID":"2022-155C","EPOCH":"2026-07-09T19:53:16.859904","CLASSIFICATION_TYPE":"U","MEAN_MOTION":15.54177568,"ECCENTRICITY":0.0004702,"INCLINATION":97.6236,"RA_OF_ASC_NODE":332.7088,"ARG_OF_PERICENTER":274.1914,"MEAN_ANOMALY":85.8801,"EPHEMERIS_TYPE":0,"NORAD_CAT_ID":54253,"ELEMENT_SET_NO":999,"REV_AT_EPOCH":20300,"BSTAR":0.00039627,"MEAN_MOTION_DOT":0.00025734,"MEAN_MOTION_DDOT":0},{"OBJECT_NAME":"JILIN-1 GAOFEN 03D52","OBJECT_ID":"2022-155E","EPOCH":"2026-07-09T20:44:42.122688","CLASSIFICATION_TYPE":"U","MEAN_MOTION":15.61677072,"ECCENTRICITY":0.0003478,"INCLINATION":97.6217,"RA_OF_ASC_NODE":335.6929,"ARG_OF_PERICENTER":269.6997,"MEAN_ANOMALY":90.3861,"EPHEMERIS_TYPE":0,"NORAD_CAT_ID":54255,"ELEMENT_SET_NO":999,"REV_AT_EPOCH":20324,"BSTAR":0.00045452,"MEAN_MOTION_DOT":0.00039159,"MEAN_MOTION_DDOT":0},{"OBJECT_NAME":"JILIN-1 GAOFEN 03D50","OBJECT_ID":"2022-167J","EPOCH":"2026-07-09T21:11:42.978912","CLASSIFICATION_TYPE":"U","MEAN_MOTION":15.34989411,"ECCENTRICITY":0.0005657,"INCLINATION":97.6848,"RA_OF_ASC_NODE":359.6633,"ARG_OF_PERICENTER":38.7682,"MEAN_ANOMALY":321.3966,"EPHEMERIS_TYPE":0,"NORAD_CAT_ID":54690,"ELEMENT_SET_NO":999,"REV_AT_EPOCH":19883,"BSTAR":0.00025252,"MEAN_MOTION_DOT":0.0000849,"MEAN_MOTION_DDOT":0},{"OBJECT_NAME":"JILIN-1 GAOFEN 03D47","OBJECT_ID":"2022-167L","EPOCH":"2026-07-09T19:39:50.677056","CLASSIFICATION_TYPE":"U","MEAN_MOTION":15.34273306,"ECCENTRICITY":0.0008216,"INCLINATION":97.6946,"RA_OF_ASC_NODE":1.3338,"ARG_OF_PERICENTER":46.7886,"MEAN_ANOMALY":313.4041,"EPHEMERIS_TYPE":0,"NORAD_CAT_ID":54692,"ELEMENT_SET_NO":999,"REV_AT_EPOCH":19881,"BSTAR":0.00024438,"MEAN_MOTION_DOT":0.00008032,"MEAN_MOTION_DDOT":0},{"OBJECT_NAME":"JILIN-1 GAOFEN 03D49","OBJECT_ID":"2022-167N","EPOCH":"2026-07-09T20:20:54.904416","CLASSIFICATION_TYPE":"U","MEAN_MOTION":15.37957549,"ECCENTRICITY":0.0006366,"INCLINATION":97.6823,"RA_OF_ASC_NODE":1.9982,"ARG_OF_PERICENTER":65.169,"MEAN_ANOMALY":295.0216,"EPHEMERIS_TYPE":0,"NORAD_CAT_ID":54694,"ELEMENT_SET_NO":999,"REV_AT_EPOCH":19897,"BSTAR":0.0002621,"MEAN_MOTION_DOT":0.00009703,"MEAN_MOTION_DDOT":0},{"OBJECT_NAME":"JILIN-1 GAOFEN 03D48","OBJECT_ID":"2022-167P","EPOCH":"2026-07-09T21:04:36.580224","CLASSIFICATION_TYPE":"U","MEAN_MOTION":15.35718105,"ECCENTRICITY":0.0006878,"INCLINATION":97.6893,"RA_OF_ASC_NODE":1.3696,"ARG_OF_PERICENTER":47.3054,"MEAN_ANOMALY":312.8767,"EPHEMERIS_TYPE":0,"NORAD_CAT_ID":54695,"ELEMENT_SET_NO":999,"REV_AT_EPOCH":19887,"BSTAR":0.00024778,"MEAN_MOTION_DOT":0.00008528,"MEAN_MOTION_DDOT":0},{"OBJECT_NAME":"JILIN GAOFEN OBJECT A","OBJECT_ID":"2026-080A","EPOCH":"2026-07-06T18:42:42.845184","CLASSIFICATION_TYPE":"U","MEAN_MOTION":15.09144054,"ECCENTRICITY":0.00119065,"INCLINATION":97.6601,"RA_OF_ASC_NODE":263.2709,"ARG_OF_PERICENTER":4.6722,"MEAN_ANOMALY":355.4615,"EPHEMERIS_TYPE":0,"NORAD_CAT_ID":68691,"ELEMENT_SET_NO":999,"REV_AT_EPOCH":1261,"BSTAR":0.00023333317,"MEAN_MOTION_DOT":0.00003644,"MEAN_MOTION_DDOT":0},{"OBJECT_NAME":"JILIN GAOFEN OBJECT B","OBJECT_ID":"2026-080B","EPOCH":"2026-07-09T17:52:47.199072","CLASSIFICATION_TYPE":"U","MEAN_MOTION":15.09075886,"ECCENTRICITY":0.0015212,"INCLINATION":97.6593,"RA_OF_ASC_NODE":266.2474,"ARG_OF_PERICENTER":333.2589,"MEAN_ANOMALY":26.7853,"EPHEMERIS_TYPE":0,"NORAD_CAT_ID":68692,"ELEMENT_SET_NO":999,"REV_AT_EPOCH":1306,"BSTAR":0.00022648,"MEAN_MOTION_DOT":0.00003531,"MEAN_MOTION_DDOT":0},{"OBJECT_NAME":"JILIN GAOFEN OBJECT C","OBJECT_ID":"2026-080C","EPOCH":"2026-07-09T19:52:45.093216","CLASSIFICATION_TYPE":"U","MEAN_MOTION":15.09149988,"ECCENTRICITY":0.0012534,"INCLINATION":97.6596,"RA_OF_ASC_NODE":266.2999,"ARG_OF_PERICENTER":334.379,"MEAN_ANOMALY":25.6816,"EPHEMERIS_TYPE":0,"NORAD_CAT_ID":68693,"ELEMENT_SET_NO":999,"REV_AT_EPOCH":1307,"BSTAR":0.00026568,"MEAN_MOTION_DOT":0.00004159,"MEAN_MOTION_DDOT":0},{"OBJECT_NAME":"JILIN GAOFEN OBJECT D","OBJECT_ID":"2026-080D","EPOCH":"2026-07-09T19:28:45.391872","CLASSIFICATION_TYPE":"U","MEAN_MOTION":15.08932321,"ECCENTRICITY":0.0016898,"INCLINATION":97.6658,"RA_OF_ASC_NODE":266.3843,"ARG_OF_PERICENTER":344.9937,"MEAN_ANOMALY":15.0788,"EPHEMERIS_TYPE":0,"NORAD_CAT_ID":68694,"ELEMENT_SET_NO":999,"REV_AT_EPOCH":1305,"BSTAR":0.00022039,"MEAN_MOTION_DOT":0.00003423,"MEAN_MOTION_DDOT":0},{"OBJECT_NAME":"JILIN GAOFEN OBJECT E","OBJECT_ID":"2026-080E","EPOCH":"2026-07-09T20:39:18.375840","CLASSIFICATION_TYPE":"U","MEAN_MOTION":15.09224887,"ECCENTRICITY":0.0012903,"INCLINATION":97.6637,"RA_OF_ASC_NODE":266.4528,"ARG_OF_PERICENTER":356.9559,"MEAN_ANOMALY":3.1589,"EPHEMERIS_TYPE":0,"NORAD_CAT_ID":68695,"ELEMENT_SET_NO":999,"REV_AT_EPOCH":1304,"BSTAR":0.00019277,"MEAN_MOTION_DOT":0.00003006,"MEAN_MOTION_DDOT":0},{"OBJECT_NAME":"JILIN GAOFEN OBJECT F","OBJECT_ID":"2026-080F","EPOCH":"2026-07-09T20:37:42.794976","CLASSIFICATION_TYPE":"U","MEAN_MOTION":15.09189108,"ECCENTRICITY":0.0014027,"INCLINATION":97.6608,"RA_OF_ASC_NODE":266.4224,"ARG_OF_PERICENTER":2.583,"MEAN_ANOMALY":357.5468,"EPHEMERIS_TYPE":0,"NORAD_CAT_ID":68696,"ELEMENT_SET_NO":999,"REV_AT_EPOCH":1304,"BSTAR":0.00019238,"MEAN_MOTION_DOT":0.00002998,"MEAN_MOTION_DDOT":0},{"OBJECT_NAME":"JILIN GAOFEN OBJECT G","OBJECT_ID":"2026-080G","EPOCH":"2026-07-09T20:17:38.385888","CLASSIFICATION_TYPE":"U","MEAN_MOTION":15.09171205,"ECCENTRICITY":0.0013889,"INCLINATION":97.6649,"RA_OF_ASC_NODE":266.4896,"ARG_OF_PERICENTER":355.1798,"MEAN_ANOMALY":4.9294,"EPHEMERIS_TYPE":0,"NORAD_CAT_ID":68697,"ELEMENT_SET_NO":999,"REV_AT_EPOCH":1304,"BSTAR":0.00019701,"MEAN_MOTION_DOT":0.0000307,"MEAN_MOTION_DDOT":0},{"OBJECT_NAME":"JILIN GAOFEN OBJECT H","OBJECT_ID":"2026-080H","EPOCH":"2026-07-09T18:38:51.904896","CLASSIFICATION_TYPE":"U","MEAN_MOTION":15.0909868,"ECCENTRICITY":0.0014685,"INCLINATION":97.6641,"RA_OF_ASC_NODE":266.4127,"ARG_OF_PERICENTER":356.7298,"MEAN_ANOMALY":3.3831,"EPHEMERIS_TYPE":0,"NORAD_CAT_ID":68698,"ELEMENT_SET_NO":999,"REV_AT_EPOCH":1303,"BSTAR":0.00025189,"MEAN_MOTION_DOT":0.00003937,"MEAN_MOTION_DDOT":0}]}
